{
    "links": {
        "self": "http://www.neowsapp.com/rest/v1/neo/3648840?api_key=iIulBulltgU6a56xZRHN4H3l9WmuAYTsLGpBGhQ2"
    },
    "id": "3648840",
    "neo_reference_id": "3648840",
    "name": "(2013 TN4)",
    "designation": "2013 TN4",
    "nasa_jpl_url": "http://ssd.jpl.nasa.gov/sbdb.cgi?sstr=3648840",
    "absolute_magnitude_h": 25.2,
    "estimated_diameter": {
        "kilometers": {
            "estimated_diameter_min": 0.0242412481,
            "estimated_diameter_max": 0.0542050786
        },
        "meters": {
            "estimated_diameter_min": 24.2412481101,
            "estimated_diameter_max": 54.2050786336
        },
        "miles": {
            "estimated_diameter_min": 0.0150628086,
            "estimated_diameter_max": 0.0336814639
        },
        "feet": {
            "estimated_diameter_min": 79.5316564495,
            "estimated_diameter_max": 177.8381901842
        }
    },
    "is_potentially_hazardous_asteroid": false,
    "close_approach_data": [
        {
            "close_approach_date": "2013-10-02",
            "close_approach_date_full": "2013-Oct-02 11:33",
            "epoch_date_close_approach": 1380713580000,
            "relative_velocity": {
                "kilometers_per_second": "10.3124614924",
                "kilometers_per_hour": "37124.8613726695",
                "miles_per_hour": "23067.9451123679"
            },
            "miss_distance": {
                "astronomical": "0.0486710107",
                "lunar": "18.9330231623",
                "kilometers": "7281079.531467209",
                "miles": "4524253.0284531242"
            },
            "orbiting_body": "Earth"
        },
        {
            "close_approach_date": "2087-10-29",
            "close_approach_date_full": "2087-Oct-29 03:20",
            "epoch_date_close_approach": 3718236000000,
            "relative_velocity": {
                "kilometers_per_second": "19.3589933634",
                "kilometers_per_hour": "69692.3761080802",
                "miles_per_hour": "43304.1322544901"
            },
            "miss_distance": {
                "astronomical": "0.4248199335",
                "lunar": "165.2549541315",
                "kilometers": "63552157.185141645",
                "miles": "39489479.323358901"
            },
            "orbiting_body": "Earth"
        },
        {
            "close_approach_date": "2140-10-22",
            "close_approach_date_full": "2140-Oct-22 17:50",
            "epoch_date_close_approach": 5390214600000,
            "relative_velocity": {
                "kilometers_per_second": "16.0813024429",
                "kilometers_per_hour": "57892.6887943259",
                "miles_per_hour": "35972.2654344521"
            },
            "miss_distance": {
                "astronomical": "0.301348209",
                "lunar": "117.224453301",
                "kilometers": "45081050.19471483",
                "miles": "28012065.654251454"
            },
            "orbiting_body": "Earth"
        }
    ],
    "orbital_data": {
        "orbit_id": "7",
        "orbit_determination_date": "2017-04-06 08:44:23",
        "first_observation_date": "2013-10-03",
        "last_observation_date": "2013-10-08",
        "data_arc_in_days": 5,
        "observations_used": 21,
        "orbit_uncertainty": "8",
        "minimum_orbit_intersection": ".0339515",
        "jupiter_tisserand_invariant": "4.165",
        "epoch_osculation": "2456569.5",
        "eccentricity": ".3836123333221303",
        "semi_major_axis": "1.647806717194294",
        "inclination": "14.25513774347604",
        "ascending_node_longitude": "189.0896966238633",
        "orbital_period": "772.6055618424151",
        "perihelion_distance": "1.015687737547511",
        "perihelion_argument": "156.9383782519289",
        "aphelion_distance": "2.279925696841076",
        "perihelion_time": "2456548.952410858952",
        "mean_anomaly": "9.574267201930965",
        "mean_motion": ".4659557447936514",
        "equinox": "J2000",
        "orbit_class": {
            "orbit_class_type": "APO",
            "orbit_class_description": "Near-Earth asteroid orbits which cross the Earth’s orbit similar to that of 1862 Apollo",
            "orbit_class_range": "a (semi-major axis) > 1.0 AU; q (perihelion) < 1.017 AU"
        }
    },
    "is_sentry_object": false
}